*******************************************************************************
JPL/HORIZONS                      1P/Halley                2023-Feb-26 12:05:47
Rec #:90000030        Soln.date: 2022-Jun-07_13:24:35   # obs: 8548 (1835-1994)
 
IAU76/J2000 helio. ecliptic osc. elements (au, days, deg., period=Julian yrs):
 
  EPOCH=  2439857.5 ! 1968-Jan-02.0000000 (TDB)    RMSW= n.a.
   EC= .9679427911271      QR= .5747157977675837   TP= 2446470.1488983454
   OM= 59.11448293673941   W= 112.257792004868     IN= 162.1878711908339
   A= 17.92781773504393    MA= 274.1404919498392   ADIST= 35.28091967232027
   PER= 75.91006173829101  N= .012984132           ANGMOM= .018294235
   DAN= 1.7857             DDN= .82759             L= 305.8527835
   B= 16.4455591           MOID= .0752736          TP= 1986-Feb-08.6488983454
 
Comet physical (GM= km^3/s^2; RAD= km):
   GM= n.a.                RAD= 5.5
   M1=  5.5      M2=  13.6     k1=  8.     k2=  5.      PHCOF=  .030
 
Comet non-gravitational force model (AMRAT=m^2/kg;A1-A3=au/d^2;DT=days;R0=au):
   AMRAT=  0.                                      DT=  0.
   A1= 4.823267459869E-10  A2= 1.554713398218E-10  A3= 0.
 Standard model:
   ALN=  .1112620426   NK=  4.6142   NM=  2.15     NN=  5.093    R0=  2.808
 
COMET comments 
1: soln ref.= JPL#73, data arc: 1835-08-21 to 1994-01-11
2: k1=8.0, k2=5.0, phase coef.=0.03;
*******************************************************************************


*******************************************************************************
Ephemeris / WWW_USER Sun Feb 26 12:05:47 2023 Pasadena, USA      / Horizons    
*******************************************************************************
Target body name: 1P/Halley                       {source: JPL#73}
Center body name: Sun (10)                        {source: DE441}
Center-site name: BODYCENTRIC
*******************************************************************************
Start time      : A.D. 1910-Jan-01 00:00:00.0000 UT      
Stop  time      : A.D. 1987-Jan-01 00:00:00.0000 UT      
Step-size       : 43200 minutes
*******************************************************************************
Target pole/equ : undefined
Target radii    : 5.5 km                                                       
Center geodetic : 0.0, 0.0, -6.96E5               {E-lon(deg),Lat(deg),Alt(km)}
Center cylindric: 0.0, 0.0, 0.0                   {E-lon(deg),Dxy(km),Dz(km)}
Center pole/equ : IAU_SUN                         {East-longitude positive}
Center radii    : 696000.0, 696000.0, 696000.0 km {Equator_a, b, pole_c}       
Target primary  : Sun
Vis. interferer : None
Rel. light bend : Sun                             {source: DE441}
Rel. lght bnd GM: 1.3271E+11 km^3/s^2                                          
Small-body perts: Yes                             {source: SB441-N16}
Atmos refraction: NO (AIRLESS)
RA format       : HMS
Time format     : CAL 
Calendar mode   : Mixed Julian/Gregorian
EOP file        : eop.230224.p230519                                           
EOP coverage    : DATA-BASED 1962-JAN-20 TO 2023-FEB-24. PREDICTS-> 2023-MAY-18
Units conversion: 1 au= 149597870.700 km, c= 299792.458 km/s, 1 day= 86400.0 s 
Table cut-offs 1: Elevation (-90.0deg=NO ),Airmass     n.a.    , Daylight (NO )
Table cut-offs 2: Solar elongation (  0.0,180.0=NO ),Local Hour Angle( 0.0=NO )
Table cut-offs 3: RA/DEC angular rate (     0.0=NO )                           
Table format    : Comma Separated Values (spreadsheet)
*******************************************************************************
Initial IAU76/J2000 heliocentric ecliptic osculating elements (au, days, deg.):
  EPOCH=  2439857.5 ! 1968-Jan-02.0000000 (TDB)    RMSW= n.a.                  
   EC= .9679427911271      QR= .5747157977675837   TP= 2446470.1488983454      
   OM= 59.11448293673941   W= 112.257792004868     IN= 162.1878711908339       
  Equivalent ICRF heliocentric cartesian coordinates (au, au/d):
   X=-1.333580711037850E+01  Y= 2.543805202833605E+01  Z= 2.636800024594010E+00
  VX= 1.415824036915183E-03 VY=-1.416718165237950E-03 VZ= 4.194435401575923E-05
Comet physical (GM= km^3/s^2; RAD= km):                                        
   GM= n.a.                RAD= 5.5                                            
   M1=  5.5      M2=  13.6     k1=  8.     k2=  5.      PHCOF=  .030           
Comet non-gravitational force model (AMRAT=m^2/kg;A1-A3=au/d^2;DT=days;R0=au): 
   AMRAT=  0.                                      DT=  0.                     
   A1= 4.823267459869E-10  A2= 1.554713398218E-10  A3= 0.                      
 Standard model:                                                               
   ALN=  .1112620426   NK=  4.6142   NM=  2.15     NN=  5.093    R0=  2.808    
************************************************************************************************************************************************************************************************
 Date__(UT)__HR:MN, , , R.A._(ICRF), DEC__(ICRF),    T-mag,  N-mag,             delta,     deldot,     S-O-T,/r,     S-T-O,  Tru_Anom,  Sky_motion, Sky_mot_PA, RelVel-ANG, Lun_Sky_Brt  sky_SNR
************************************************************************************************************************************************************************************************
$$SOE
 1953-Feb-14 00:00, , , 08 11 18.56, +03 21 33.3,   25.554, 29.026,  34.8850584473608, -0.7127449,    0.0000,/*,    0.0002,  181.5130,   0.0021617,  282.69093,  -38.02141,        n.a.     n.a.
 1953-Mar-16 00:00, , , 08 11 12.72, +03 22 06.0,   25.552, 29.025,  34.8726001417052, -0.7253260,    0.0000,/*,    0.0002,  181.5388,   0.0021621,  282.69884,  -38.51349,        n.a.     n.a.
 1953-Apr-15 00:00, , , 08 11 06.87, +03 22 38.7,   25.550, 29.023,  34.8599239587799, -0.7378783,    0.0000,/*,    0.0002,  181.5648,   0.0021628,  282.70662,  -38.99477,        n.a.     n.a.
 1953-May-15 00:00, , , 08 11 01.03, +03 23 11.5,   25.548, 29.022,  34.8470307869739, -0.7503749,    0.0000,/*,    0.0002,  181.5906,   0.0021636,  282.71574,  -39.46697,        n.a.     n.a.
 1953-Jun-14 00:00, , , 08 10 55.18, +03 23 44.2,   25.546, 29.020,  34.8339212205403, -0.7628663,    0.0000,/*,    0.0002,  181.6163,   0.0021642,  282.72542,  -39.93358,        n.a.     n.a.
 1953-Jul-14 00:00, , , 08 10 49.33, +03 24 17.0,   25.544, 29.018,  34.8205952339361, -0.7753582,    0.0000,/*,    0.0002,  181.6420,   0.0021649,  282.73576,  -40.39488,        n.a.     n.a.
 1953-Aug-13 00:00, , , 08 10 43.48, +03 24 49.7,   25.542, 29.017,  34.8070524365250, -0.7879026,    0.0000,/*,    0.0002,  181.6676,   0.0021654,  282.74590,  -40.85364,        n.a.     n.a.
 1953-Sep-12 00:00, , , 08 10 37.63, +03 25 22.5,   25.539, 29.015,  34.7932913359731, -0.8005600,    0.0000,/*,    0.0002,  181.6934,   0.0021659,  282.75379,  -41.31033,        n.a.     n.a.
 1953-Oct-12 00:00, , , 08 10 31.77, +03 25 55.2,   25.537, 29.013,  34.7793103237858, -0.8132775,    0.0000,/*,    0.0002,  181.7194,   0.0021666,  282.76009,  -41.76085,        n.a.     n.a.
 1953-Nov-11 00:00, , , 08 10 25.92, +03 26 28.0,   25.535, 29.011,  34.7651086678873, -0.8260250,    0.0000,/*,    0.0002,  181.7456,   0.0021674,  282.76556,  -42.20445,        n.a.     n.a.
 1953-Dec-11 00:00, , , 08 10 20.06, +03 27 00.8,   25.533, 29.010,  34.7506858686323, -0.8387991,    0.0000,/*,    0.0002,  181.7719,   0.0021685,  282.77006,  -42.64084,        n.a.     n.a.
 1954-Jan-10 00:00, , , 08 10 14.19, +03 27 33.6,   25.530, 29.008,  34.7360419655681, -0.8515452,    0.0000,/*,    0.0002,  181.7982,   0.0021696,  282.77525,  -43.06885,        n.a.     n.a.
 1954-Feb-09 00:00, , , 08 10 08.33, +03 28 06.3,   25.528, 29.006,  34.7211772789001, -0.8642926,    0.0000,/*,    0.0002,  181.8244,   0.0021707,  282.78108,  -43.49146,        n.a.     n.a.
 1954-Mar-11 00:00, , , 08 10 02.46, +03 28 39.1,   25.525, 29.004,  34.7060912114494, -0.8771006,    0.0000,/*,    0.0002,  181.8508,   0.0021718,  282.78582,  -43.90999,        n.a.     n.a.
 1954-Apr-10 00:00, , , 08 09 56.59, +03 29 11.9,   25.523, 29.002,  34.6907829282627, -0.8899433,    0.0000,/*,    0.0002,  181.8773,   0.0021730,  282.78990,  -44.32268,        n.a.     n.a.
 1954-May-10 00:00, , , 08 09 50.71, +03 29 44.7,   25.520, 29.000,  34.6752517660270, -0.9028285,    0.0000,/*,    0.0002,  181.9039,   0.0021744,  282.79299,  -44.72974,        n.a.     n.a.
 1954-Jun-09 00:00, , , 08 09 44.83, +03 30 17.6,   25.518, 28.998,  34.6594969369428, -0.9157484,    0.0000,/*,    0.0002,  181.9307,   0.0021759,  282.79451,  -45.12933,        n.a.     n.a.
 1954-Jul-09 00:00, , , 08 09 38.94, +03 30 50.4,   25.515, 28.996,  34.6435186371653, -0.9286191,    0.0000,/*,    0.0002,  181.9576,   0.0021777,  282.79672,  -45.51949,        n.a.     n.a.
 1954-Aug-08 00:00, , , 08 09 33.05, +03 31 23.2,   25.512, 28.994,  34.6273177726355, -0.9414459,    0.0000,/*,    0.0002,  181.9844,   0.0021794,  282.80024,  -45.90290,        n.a.     n.a.
 1954-Sep-07 00:00, , , 08 09 27.16, +03 31 56.1,   25.510, 28.992,  34.6108946278938, -0.9542760,    0.0000,/*,    0.0002,  182.0111,   0.0021811,  282.80405,  -46.28137,        n.a.     n.a.
 1954-Oct-07 00:00, , , 08 09 21.25, +03 32 28.9,   25.507, 28.990,  34.5942491882631, -0.9671159,    0.0000,/*,    0.0002,  182.0377,   0.0021828,  282.80859,  -46.65599,        n.a.     n.a.
 1954-Nov-06 00:00, , , 08 09 15.35, +03 33 01.8,   25.504, 28.988,  34.5773807183320, -0.9800331,    0.0000,/*,    0.0002,  182.0643,   0.0021843,  282.81233,  -47.02888,        n.a.     n.a.
 1954-Dec-06 00:00, , , 08 09 09.44, +03 33 34.7,   25.502, 28.986,  34.5602873913007, -0.9930608,    0.0000,/*,    0.0002,  182.0913,   0.0021860,  282.81350,  -47.39803,        n.a.     n.a.
 1955-Jan-05 00:00, , , 08 09 03.52, +03 34 07.6,   25.499, 28.984,  34.5429678984185, -1.0061344,    0.0000,/*,    0.0002,  182.1186,   0.0021879,  282.81328,  -47.76039,        n.a.     n.a.
 1955-Feb-04 00:00, , , 08 08 57.60, +03 34 40.5,   25.496, 28.981,  34.5254217413886, -1.0192225,    0.0000,/*,    0.0002,  182.1461,   0.0021901,  282.81223,  -48.11521,        n.a.     n.a.
